STARLINK-4071           
1 52671U 22053R   24227.66038713 -.00003376  00000+0 -19419-3 0  9991
2 52671  53.2178 202.0566 0001150 107.9888 252.1229 15.08830928124260
STARLINK-4073           
1 52672U 22053S   24227.34021229  .00019920  00000+0  12669-2 0  9990
2 52672  53.2143 203.4995 0001035  83.0559 277.0551 15.08818034124634
STARLINK-3976           
1 52673U 22053T   24227.32180787 -.00002617  00000+0 -14646-3 0  9999
2 52673  53.2157 203.5798 0001592  87.0605 273.0570 15.08826743124639
STARLINK-3936           
1 52674U 22053U   24227.66773895  .00013119  00000+0  84116-3 0  9991
2 52674  53.2140 202.0286 0001429  88.8400 271.2755 15.08825355124261
STARLINK-3934           
1 52675U 22053V   24227.31905236 -.00003424  00000+0 -19724-3 0  9993
2 52675  53.2154 193.5929 0001520 105.1161 255.0000 15.08825109124769
STARLINK-4006           
1 52676U 22053W   24227.65669340 -.00001765  00000+0 -92861-4 0  9994
2 52676  53.2173 202.0788 0001510  83.7125 276.4039 15.08833958124254
STARLINK-4028           
1 52677U 22053X   24227.31169502 -.00004661  00000+0 -27507-3 0  9995
2 52677  53.2152 193.6244 0001482  94.4194 265.6967 15.08819354124745
STARLINK-4074           
1 52678U 22053Y   24227.59506224 -.00002851  00000+0 -16114-3 0  9993
2 52678  53.2167 192.4613 0001253  93.7331 266.3804 15.08834073124800
STARLINK-4031           
1 52679U 22053Z   24227.30064830 -.00003118  00000+0 -17797-3 0  9990
2 52679  53.2143 193.6754 0001380  89.6480 270.4671 15.08826272124725
STARLINK-3774           
1 52680U 22053AA  24227.16078653 -.00002183  00000+0 -11913-3 0  9999
2 52680  53.2170 194.0710 0001334  92.1317 267.9828 15.08830534124722
STARLINK-4068           
1 52681U 22053AB  24227.29698175  .00008632  00000+0  56001-3 0  9991
2 52681  53.2150 193.6922 0001208 112.2273 247.8847 15.08824865124724
STARLINK-4017           
1 52682U 22053AC  24227.17553357 -.00003273  00000+0 -18768-3 0  9997
2 52682  53.2169 194.2361 0001514  97.4745 262.6419 15.08835819124728
STARLINK-4039           
1 52683U 22053AD  24227.62082257 -.00001437  00000+0 -72241-4 0  9991
2 52683  53.2162 192.2353 0001458  81.9331 278.1826 15.08824256124386
STARLINK-4014           
1 52684U 22053AE  24227.63552958  .00000579  00000+0  54466-4 0  9996
2 52684  53.2152 192.1721 0001364  88.7964 271.3184 15.08832157124399
STARLINK-4029           
1 52685U 22053AF  24227.34849514  .00013091  00000+0  83883-3 0  9999
2 52685  53.2152 193.4610 0001383  89.5018 270.6132 15.08849207124716
STARLINK-4005           
1 52686U 22053AG  24227.18757048 -.00002455  00000+0 -13628-3 0  9996
2 52686  53.2170 194.4641 0001491  93.7162 266.4000 15.08823289124695
STARLINK-3981           
1 52687U 22053AH  24227.60977256 -.00004285  00000+0 -25134-3 0  9997
2 52687  53.2156 192.2886 0001472  97.7375 262.3784 15.08830735124751
STARLINK-4032           
1 52688U 22053AJ  24227.60607590 -.00001815  00000+0 -96022-4 0  9990
2 52688  53.2159 192.1887 0001392  91.8274 268.2878 15.08832082124384
STARLINK-4078           
1 52689U 22053AK  24227.59872690 -.00002732  00000+0 -15367-3 0  9995
2 52689  53.2159 192.3400 0001411  95.5499 264.5654 15.08832301124789
STARLINK-4035           
1 52690U 22053AL  24227.61713376 -.00002299  00000+0 -12641-3 0  9995
2 52690  53.2172 192.2553 0001487  90.7951 269.3211 15.08835635124388
STARLINK-3945           
1 52691U 22053AM  24227.61812430  .00001996  00000+0  14344-3 0  9990
2 52691  53.2150 192.5021 0001075 102.3991 257.7122 15.08838924124381
STARLINK-3993           
1 52692U 22053AN  24227.18285516 -.00000775  00000+0 -30620-4 0  9994
2 52692  53.2153 193.9327 0001421  81.4980 278.6173 15.08832549124722
STARLINK-3946           
1 52693U 22053AP  24227.32273047 -.00002608  00000+0 -14586-3 0  9996
2 52693  53.2173 193.5775 0001762  96.2366 263.8827 15.08828078124744
STARLINK-4072           
1 52694U 22053AQ  24227.60240923 -.00004024  00000+0 -23492-3 0  9995
2 52694  53.2161 192.3228 0001531  90.0105 270.1063 15.08830037124784
STARLINK-4041           
1 52695U 22053AR  24227.77304790 -.00001074  00000+0 -49414-4 0  9992
2 52695  53.2158 196.3530 0001747  83.3216 276.7974 15.08836970124345
STARLINK-4025           
1 52696U 22053AS  24227.19393584 -.00002253  00000+0 -12357-3 0  9993
2 52696  53.2155 194.1563 0001306  87.0763 273.0378 15.08827076124721
STARLINK-4018           
1 52697U 22053AT  24227.33610652 -.00002607  00000+0 -14582-3 0  9993
2 52697  53.2163 198.5155 0001628 103.4424 256.6750 15.08827933124688
STARLINK-4030           
1 52698U 22053AU  24227.61115211  .00008881  00000+0  57563-3 0  9990
2 52698  53.2157 197.2725 0001167  86.9783 273.1343 15.08823402124311
STARLINK-3987           
1 52699U 22053AV  24227.58999875 -.00000433  00000+0 -91035-5 0  9994
2 52699  53.2168 187.4067 0001446  91.5310 268.5847 15.08831100124447
STARLINK-4034           
1 52700U 22053AW  24227.63687402 -.00002192  00000+0 -11972-3 0  9997
2 52700  53.2167 196.8096 0001406  84.6886 275.4267 15.08834073124324
STARLINK-4003           
1 52701U 22053AX  24227.57021273 -.00000460  00000+0 -10832-4 0  9990
2 52701  53.2166 182.4661 0001362  97.3144 262.8003 15.08833279124945
STARLINK-4033           
1 52702U 22053AY  24227.33515848  .00009034  00000+0  58500-3 0  9998
2 52702  53.2153 198.5491 0001521  93.3037 266.8130 15.08839448124685
STARLINK-4020           
1 52703U 22053AZ  24227.16174328 -.00001579  00000+0 -81142-4 0  9991
2 52703  53.2156 184.3128 0001442  97.4144 262.7012 15.08835041123605
STARLINK-3999           
1 52704U 22053BA  24227.57389288 -.00003097  00000+0 -17661-3 0  9991
2 52704  53.2175 182.4492 0001268  93.1618 266.9519 15.08834236124519
STARLINK-3844           
1 52705U 22053BB  24227.29791205 -.00005335  00000+0 -31758-3 0  9997
2 52705  53.2152 183.6877 0001671  97.8733 262.2449 15.08811370124472
STARLINK-3970           
1 52706U 22053BC  24227.30156030 -.00000404  00000+0 -72958-5 0  9992
2 52706  53.2147 183.6729 0001315 101.2759 258.8381 15.08837868124900
STARLINK-4007           
1 52707U 22053BD  24227.61070284  .00008709  00000+0  56479-3 0  9995
2 52707  53.2157 182.1677 0001499  84.2899 275.8264 15.08826001124531
STARLINK-3962           
1 52708U 22053BE  24227.25741986 -.00003774  00000+0 -21920-3 0  9992
2 52708  53.2177 183.8614 0001559  91.4920 268.6251 15.08825957125104
COSMOS 2556             
1 52713U 22054A   24226.82564451  .00014721  00000+0  61172-3 0  9996
2 52713  97.5620 155.6204 0012885  20.9066 339.2695 15.23835942124241
2022-056A               
1 52716U 22056A   24226.83914773  .00000983  00000+0  61069-3 0  9998
2 52716  86.0065 320.3310 0017441 307.5762  52.3832 14.03958967114536
2022-056B               
1 52717U 22056B   24226.80683802  .00000099  00000+0  17838-3 0  9995
2 52717  86.0107 359.9071 0046321  71.1525 289.4627 13.29573938108969
2022-056C               
1 52718U 22056C   24226.84305258  .00001050  00000+0  65316-3 0  9998
2 52718  86.0065 320.3329 0013258 300.4668  59.5200 14.03962778114530
PTD-3 (TYVAK-0125)      
1 52734U 22057C   24227.66499453  .00254672  00000+0  11092-2 0  9990
2 52734  97.5472  11.5143 0009195 225.9071 134.1442 15.84052983124597
OP15 FLT2 (TYVAK-0821)  
1 52735U 22057D   24227.82929418  .00372972  00000+0  21307-2 0  9992
2 52735  97.5582   2.6286 0008099 275.3433  84.6908 15.77825943124022
GHGSAT-C3               
1 52737U 22057F   24226.81425399  .00015484  00000+0  70315-3 0  9997
2 52737  97.5803 346.2703 0007142 334.6767  25.4117 15.20851725122835
PLANETUM1               
1 52738U 22057G   24227.57827143  .00097738  00000+0  18231-2 0  9995
2 52738  97.5694 356.1052 0005442 289.5874  70.4788 15.48432612123586
CONNECTA T1.1           
1 52739U 22057H   24227.30466930  .00039268  00000+0  14410-2 0  9999
2 52739  97.5839 349.7232 0007073 323.9510  36.1251 15.27825034123077
OP15 FLT1 (TYVAK-0820)  
1 52741U 22057K   24227.42892994  .00339794  00000+0  26519-2 0  9998
2 52741  97.5722   1.8019 0008067 281.2975  78.7380 15.70625922123870
CENTAURI-5 (TYVAK-0212) 
1 52742U 22057L   24227.35067872  .00242545  00000+0  19778-2 0  9996
2 52742  97.5700   4.8360 0005168 245.2604 114.8120 15.69867151124119
GHGSAT-C5               
1 52744U 22057N   24226.79075533  .00015034  00000+0  68237-3 0  9994
2 52744  97.5881 347.0462 0008237 331.0639  29.0138 15.20870196122831
GHGSAT-C4               
1 52746U 22057Q   24226.83423486  .00015302  00000+0  69504-3 0  9991
2 52746  97.5736 345.7561 0007267 319.2708  40.7982 15.20847630122849
NUSAT-28 (ALICE LEE)    
1 52747U 22057R   24226.84293356  .00035717  00000+0  13140-2 0  9990
2 52747  97.4633 346.1870 0006875 255.7670 104.2806 15.27763853123493
NUSAT-30 (MARGHERITA)   
1 52748U 22057S   24226.81852128  .00099746  00000+0  15921-2 0  9997
2 52748  97.4090 348.0136 0003740 215.7241 144.3762 15.52847103124053
CARCARA 1 (ICEYE-X18)   
1 52749U 22057T   24226.79465169  .00053659  00000+0  16948-2 0  9993
2 52749  97.5661 349.9226 0010063 271.9190  88.0899 15.32595055123117
NUSAT-31 (RUBY PAYNE-S) 
1 52752U 22057W   24226.83756403  .00043818  00000+0  13104-2 0  9993
2 52752  97.5804 352.3313 0006381 297.1288  62.9303 15.34414290123227
HAWK-5C                 
1 52754U 22057Y   24227.29236958  .00024637  00000+0  98620-3 0  9999
2 52754  97.5833 350.1854 0006967 311.9236  48.1407 15.25036923123061
ICEYE-X24               
1 52755U 22057Z   24226.82547250  .00086267  00000+0  16849-2 0  9997
2 52755  97.5722 356.9418 0000350 123.6148 236.5135 15.47160755123548
HAWK-5B                 
1 52756U 22057AA  24227.29223951  .00026996  00000+0  10798-2 0  9999
2 52756  97.5830 348.6314 0007579 305.6746  54.3786 15.25040349123065
HAWK-5A                 
1 52757U 22057AB  24227.29200389  .00024870  00000+0  99527-3 0  9997
2 52757  97.5832 349.4022 0007885 309.3471  50.7067 15.25038418123065
CARCARA 2 (ICEYE-X19)   
1 52758U 22057AC  24226.79039790  .00061757  00000+0  16184-2 0  9990
2 52758  97.5693 352.0700 0011379 292.8479  67.1564 15.38404875123232
